[{"OBJECT_NAME":"STARLINK-1226","OBJECT_ID":"2020-012BD","EPOCH":"2026-03-09T22:42:57.676896","MEAN_MOTION":15.30192115,"ECCENTRICITY":0.00012465,"INCLINATION":53.1609,"RA_OF_ASC_NODE":357.4259,"ARG_OF_PERICENTER":109.2355,"MEAN_ANOMALY":250.878,"EPHEMERIS_TYPE":0,"CLASSIFICATION_TYPE":"U","NORAD_CAT_ID":45229,"ELEMENT_SET_NO":999,"REV_AT_EPOCH":33545,"BSTAR":1.2652625e-5,"MEAN_MOTION_DOT":1.6e-7,"MEAN_MOTION_DDOT":0},{"OBJECT_NAME":"JILIN-1 GAOFEN 03D50","OBJECT_ID":"2022-167J","EPOCH":"2026-03-09T22:35:59.947584","MEAN_MOTION":15.32279726,"ECCENTRICITY":0.00065764,"INCLINATION":97.6731,"RA_OF_ASC_NODE":232.9458,"ARG_OF_PERICENTER":101.1473,"MEAN_ANOMALY":259.0507,"EPHEMERIS_TYPE":0,"CLASSIFICATION_TYPE":"U","NORAD_CAT_ID":54690,"ELEMENT_SET_NO":999,"REV_AT_EPOCH":18014,"BSTAR":0.00049467973,"MEAN_MOTION_DOT":0.00015359,"MEAN_MOTION_DDOT":0}]
